[{"OBJECT_NAME":"SL-8 R/B","OBJECT_ID":"1979-089B","EPOCH":"2026-03-13T00:07:46.231680","MEAN_MOTION":14.42352959,"ECCENTRICITY":0.0017117,"INCLINATION":74.0666,"RA_OF_ASC_NODE":84.905,"ARG_OF_PERICENTER":257.2614,"MEAN_ANOMALY":102.6629,"EPHEMERIS_TYPE":0,"CLASSIFICATION_TYPE":"U","NORAD_CAT_ID":11574,"ELEMENT_SET_NO":999,"REV_AT_EPOCH":43658,"BSTAR":9.9734e-5,"MEAN_MOTION_DOT":3.04e-6,"MEAN_MOTION_DDOT":0},{"OBJECT_NAME":"SL-14 R/B","OBJECT_ID":"1980-005B","EPOCH":"2026-03-12T17:56:49.349760","MEAN_MOTION":14.90934299,"ECCENTRICITY":0.00164278,"INCLINATION":82.5139,"RA_OF_ASC_NODE":304.3355,"ARG_OF_PERICENTER":148.5125,"MEAN_ANOMALY":211.7081,"EPHEMERIS_TYPE":0,"CLASSIFICATION_TYPE":"U","NORAD_CAT_ID":11672,"ELEMENT_SET_NO":999,"REV_AT_EPOCH":47694,"BSTAR":6.3179138e-5,"MEAN_MOTION_DOT":6.5e-6,"MEAN_MOTION_DDOT":0},{"OBJECT_NAME":"SL-8 R/B","OBJECT_ID":"1981-003B","EPOCH":"2026-03-12T23:32:23.465760","MEAN_MOTION":15.11108098,"ECCENTRICITY":0.0261833,"INCLINATION":82.9386,"RA_OF_ASC_NODE":286.9806,"ARG_OF_PERICENTER":167.1764,"MEAN_ANOMALY":193.6307,"EPHEMERIS_TYPE":0,"CLASSIFICATION_TYPE":"U","NORAD_CAT_ID":12139,"ELEMENT_SET_NO":999,"REV_AT_EPOCH":31517,"BSTAR":0.0005205,"MEAN_MOTION_DOT":0.00020359,"MEAN_MOTION_DDOT":0},{"OBJECT_NAME":"SL-3 R/B","OBJECT_ID":"1981-046B","EPOCH":"2026-03-12T23:08:14.255232","MEAN_MOTION":15.42085075,"ECCENTRICITY":0.0019294,"INCLINATION":81.2298,"RA_OF_ASC_NODE":285.8116,"ARG_OF_PERICENTER":11.064,"MEAN_ANOMALY":349.1023,"EPHEMERIS_TYPE":0,"CLASSIFICATION_TYPE":"U","NORAD_CAT_ID":12465,"ELEMENT_SET_NO":999,"REV_AT_EPOCH":43893,"BSTAR":0.00028796,"MEAN_MOTION_DOT":0.00012424,"MEAN_MOTION_DDOT":0},{"OBJECT_NAME":"SL-3 R/B","OBJECT_ID":"1981-103B","EPOCH":"2026-03-12T22:18:05.225760","MEAN_MOTION":15.21420506,"ECCENTRICITY":0.00123361,"INCLINATION":81.1586,"RA_OF_ASC_NODE":209.6316,"ARG_OF_PERICENTER":275.1498,"MEAN_ANOMALY":84.8325,"EPHEMERIS_TYPE":0,"CLASSIFICATION_TYPE":"U","NORAD_CAT_ID":12904,"ELEMENT_SET_NO":999,"REV_AT_EPOCH":97372,"BSTAR":0.00031484709,"MEAN_MOTION_DOT":7.105e-5,"MEAN_MOTION_DDOT":0},{"OBJECT_NAME":"SL-3 R/B","OBJECT_ID":"1982-013B","EPOCH":"2026-03-12T22:27:46.119744","MEAN_MOTION":15.2205196,"ECCENTRICITY":0.00227795,"INCLINATION":81.1758,"RA_OF_ASC_NODE":156.9663,"ARG_OF_PERICENTER":166.5279,"MEAN_ANOMALY":193.6567,"EPHEMERIS_TYPE":0,"CLASSIFICATION_TYPE":"U","NORAD_CAT_ID":13068,"ELEMENT_SET_NO":999,"REV_AT_EPOCH":40484,"BSTAR":0.00020339255,"MEAN_MOTION_DOT":4.708e-5,"MEAN_MOTION_DDOT":0},{"OBJECT_NAME":"SL-3 R/B","OBJECT_ID":"1982-039B","EPOCH":"2026-03-12T21:41:12.574464","MEAN_MOTION":15.10102679,"ECCENTRICITY":0.00295889,"INCLINATION":81.1577,"RA_OF_ASC_NODE":212.2566,"ARG_OF_PERICENTER":313.9841,"MEAN_ANOMALY":45.8944,"EPHEMERIS_TYPE":0,"CLASSIFICATION_TYPE":"U","NORAD_CAT_ID":13154,"ELEMENT_SET_NO":999,"REV_AT_EPOCH":38212,"BSTAR":0.00019111798,"MEAN_MOTION_DOT":3.167e-5,"MEAN_MOTION_DDOT":0},{"OBJECT_NAME":"SL-3 R/B","OBJECT_ID":"1982-079B","EPOCH":"2026-03-12T22:45:05.257728","MEAN_MOTION":15.24852448,"ECCENTRICITY":0.0025193,"INCLINATION":81.1477,"RA_OF_ASC_NODE":189.2302,"ARG_OF_PERICENTER":153.7775,"MEAN_ANOMALY":206.474,"EPHEMERIS_TYPE":0,"CLASSIFICATION_TYPE":"U","NORAD_CAT_ID":13403,"ELEMENT_SET_NO":999,"REV_AT_EPOCH":37819,"BSTAR":0.00029777,"MEAN_MOTION_DOT":7.49e-5,"MEAN_MOTION_DDOT":0},{"OBJECT_NAME":"SL-14 R/B","OBJECT_ID":"1982-092B","EPOCH":"2026-03-12T16:23:37.286016","MEAN_MOTION":14.86669734,"ECCENTRICITY":0.00188716,"INCLINATION":82.569,"RA_OF_ASC_NODE":138.6001,"ARG_OF_PERICENTER":292.905,"MEAN_ANOMALY":185.7518,"EPHEMERIS_TYPE":0,"CLASSIFICATION_TYPE":"U","NORAD_CAT_ID":13553,"ELEMENT_SET_NO":999,"REV_AT_EPOCH":32937,"BSTAR":5.882863e-5,"MEAN_MOTION_DOT":5.48e-6,"MEAN_MOTION_DDOT":0},{"OBJECT_NAME":"SL-3 R/B","OBJECT_ID":"1983-010B","EPOCH":"2026-03-12T17:41:56.634720","MEAN_MOTION":15.46474228,"ECCENTRICITY":0.00177327,"INCLINATION":81.1062,"RA_OF_ASC_NODE":358.5108,"ARG_OF_PERICENTER":41.1623,"MEAN_ANOMALY":319.0956,"EPHEMERIS_TYPE":0,"CLASSIFICATION_TYPE":"U","NORAD_CAT_ID":13819,"ELEMENT_SET_NO":999,"REV_AT_EPOCH":35841,"BSTAR":0.00035448886,"MEAN_MOTION_DOT":0.00017725,"MEAN_MOTION_DDOT":0},{"OBJECT_NAME":"SL-3 R/B","OBJECT_ID":"1983-075B","EPOCH":"2026-03-13T00:06:07.146432","MEAN_MOTION":15.38504931,"ECCENTRICITY":0.0020446,"INCLINATION":97.6145,"RA_OF_ASC_NODE":76.7071,"ARG_OF_PERICENTER":213.2813,"MEAN_ANOMALY":146.7148,"EPHEMERIS_TYPE":0,"CLASSIFICATION_TYPE":"U","NORAD_CAT_ID":14208,"ELEMENT_SET_NO":999,"REV_AT_EPOCH":33066,"BSTAR":0.00032189,"MEAN_MOTION_DOT":0.00012234,"MEAN_MOTION_DDOT":0},{"OBJECT_NAME":"COSMOS 1536","OBJECT_ID":"1984-013A","EPOCH":"2026-03-12T13:02:41.154432","MEAN_MOTION":15.23867314,"ECCENTRICITY":0.0012526,"INCLINATION":82.543,"RA_OF_ASC_NODE":105.0133,"ARG_OF_PERICENTER":272.1389,"MEAN_ANOMALY":87.8414,"EPHEMERIS_TYPE":0,"CLASSIFICATION_TYPE":"U","NORAD_CAT_ID":14699,"ELEMENT_SET_NO":999,"REV_AT_EPOCH":27305,"BSTAR":0.00026945,"MEAN_MOTION_DOT":6.544e-5,"MEAN_MOTION_DDOT":0},{"OBJECT_NAME":"SL-14 R/B","OBJECT_ID":"1984-027B","EPOCH":"2026-03-12T12:30:41.380992","MEAN_MOTION":14.8598001,"ECCENTRICITY":0.0017146,"INCLINATION":82.539,"RA_OF_ASC_NODE":242.3562,"ARG_OF_PERICENTER":328.1982,"MEAN_ANOMALY":31.8197,"EPHEMERIS_TYPE":0,"CLASSIFICATION_TYPE":"U","NORAD_CAT_ID":14820,"ELEMENT_SET_NO":999,"REV_AT_EPOCH":24805,"BSTAR":7.0929e-5,"MEAN_MOTION_DOT":6.45e-6,"MEAN_MOTION_DDOT":0},{"OBJECT_NAME":"SL-8 R/B","OBJECT_ID":"1985-006B","EPOCH":"2026-03-13T00:12:48.567744","MEAN_MOTION":14.37785819,"ECCENTRICITY":0.0018321,"INCLINATION":74.0433,"RA_OF_ASC_NODE":255.0401,"ARG_OF_PERICENTER":172.0514,"MEAN_ANOMALY":306.5614,"EPHEMERIS_TYPE":0,"CLASSIFICATION_TYPE":"U","NORAD_CAT_ID":15483,"ELEMENT_SET_NO":999,"REV_AT_EPOCH":15450,"BSTAR":0.00014113,"MEAN_MOTION_DOT":4.0e-6,"MEAN_MOTION_DDOT":0},{"OBJECT_NAME":"SL-12 R/B(2)","OBJECT_ID":"1985-042D","EPOCH":"2026-03-12T10:55:42.119040","MEAN_MOTION":14.21983223,"ECCENTRICITY":0.0033115,"INCLINATION":71.1063,"RA_OF_ASC_NODE":81.885,"ARG_OF_PERICENTER":123.5864,"MEAN_ANOMALY":28.0577,"EPHEMERIS_TYPE":0,"CLASSIFICATION_TYPE":"U","NORAD_CAT_ID":15772,"ELEMENT_SET_NO":999,"REV_AT_EPOCH":11478,"BSTAR":9.3673e-5,"MEAN_MOTION_DOT":1.61e-6,"MEAN_MOTION_DDOT":0},{"OBJECT_NAME":"SL-14 R/B","OBJECT_ID":"1985-069B","EPOCH":"2026-03-12T20:12:13.382784","MEAN_MOTION":14.86437421,"ECCENTRICITY":0.00187586,"INCLINATION":82.529,"RA_OF_ASC_NODE":21.9693,"ARG_OF_PERICENTER":177.1716,"MEAN_ANOMALY":182.961,"EPHEMERIS_TYPE":0,"CLASSIFICATION_TYPE":"U","NORAD_CAT_ID":15945,"ELEMENT_SET_NO":999,"REV_AT_EPOCH":17330,"BSTAR":7.1592811e-5,"MEAN_MOTION_DOT":6.58e-6,"MEAN_MOTION_DDOT":0},{"OBJECT_NAME":"SL-16 R/B","OBJECT_ID":"1985-097B","EPOCH":"2026-03-12T14:51:20.909664","MEAN_MOTION":14.16598266,"ECCENTRICITY":0.0009838,"INCLINATION":71.0022,"RA_OF_ASC_NODE":134.3878,"ARG_OF_PERICENTER":256.2098,"MEAN_ANOMALY":265.4106,"EPHEMERIS_TYPE":0,"CLASSIFICATION_TYPE":"U","NORAD_CAT_ID":16182,"ELEMENT_SET_NO":999,"REV_AT_EPOCH":8764,"BSTAR":-3.6132e-5,"MEAN_MOTION_DOT":-1.2e-6,"MEAN_MOTION_DDOT":0}]
